TOMORROW-S4             
1 62386U 24247K   26068.53305366  .00012677  00000+0  46927-3 0  9990
2 62386  44.9818 117.9996 0004434 210.4078 149.6548 15.27717249 67702
STARLINK-33944          
1 64209U 25117G   26068.20394545  .00030325  00000+0  10321-2 0  9992
2 64209  53.1606  41.7035 0001238  91.7874 268.3269 15.30192314 44489
